STARLINK-1606           
1 46144U 20057AD  20253.50001157 -.00002672  00000-0 -20036-4 0  9998
2 46144  53.0000 332.3970 0001486  57.1553 222.0760 15.66290085  4129
STARLINK-1607           
1 46145U 20057AE  20253.50001157 -.00075463  00000-0 -86984-3 0  9990
2 46145  53.0004 332.7192 0001366  54.8623  82.0939 15.61425228  4129
STARLINK-1608           
1 46146U 20057AF  20253.50001157  .00001084  00000-0  17662-4 0  9995
2 46146  53.0012 332.7324 0001322  58.2102  57.0411 15.62777372  4126
STARLINK-1611           
1 46147U 20057AG  20253.50001157 -.00117520  00000-0 -12927-2 0  9998
2 46147  53.0017 332.7258 0002373 320.2418 161.4177 15.62818226  4120
STARLINK-1616           
1 46148U 20057AH  20253.25001157  .00023274  00000-0  22575-3 0  9992
2 46148  53.0006 333.6379 0001175  61.3229 238.6405 15.66272309  1820
STARLINK-1620           
1 46149U 20057AJ  20253.50001157  .05336729  00000-0  45485-1 0  9991
2 46149  52.9986 332.3604 0001856  25.9357 272.3316 15.65164530  4124
STARLINK-1629           
1 46150U 20057AK  20253.50001157  .00001312  00000-0  20216-4 0  9993
2 46150  53.0012 332.7271 0005674 296.7255 179.9747 15.62749410  4122
STARLINK-1631           
1 46151U 20057AL  20253.50001157  .00000528  00000-0  84388-5 0  9993
2 46151  52.9980 331.4759 0002138  63.7232 298.0291 15.72344019  4136
